[{"OBJECT_NAME":"SL-8 R/B","OBJECT_ID":"1979-089B","EPOCH":"2026-03-26T09:24:03.777696","MEAN_MOTION":14.42360075,"ECCENTRICITY":0.0016832,"INCLINATION":74.0682,"RA_OF_ASC_NODE":60.1227,"ARG_OF_PERICENTER":230.7384,"MEAN_ANOMALY":129.228,"EPHEMERIS_TYPE":0,"CLASSIFICATION_TYPE":"U","NORAD_CAT_ID":11574,"ELEMENT_SET_NO":999,"REV_AT_EPOCH":43851,"BSTAR":8.6231e-5,"MEAN_MOTION_DOT":2.59e-6,"MEAN_MOTION_DDOT":0},{"OBJECT_NAME":"SL-14 R/B","OBJECT_ID":"1980-005B","EPOCH":"2026-03-26T00:52:13.762560","MEAN_MOTION":14.9094788,"ECCENTRICITY":0.00172004,"INCLINATION":82.5115,"RA_OF_ASC_NODE":291.7272,"ARG_OF_PERICENTER":107.3287,"MEAN_ANOMALY":252.9815,"EPHEMERIS_TYPE":0,"CLASSIFICATION_TYPE":"U","NORAD_CAT_ID":11672,"ELEMENT_SET_NO":999,"REV_AT_EPOCH":47892,"BSTAR":5.0984077e-5,"MEAN_MOTION_DOT":5.3e-6,"MEAN_MOTION_DDOT":0},{"OBJECT_NAME":"SL-8 R/B","OBJECT_ID":"1981-003B","EPOCH":"2026-03-26T11:41:39.784128","MEAN_MOTION":15.11694938,"ECCENTRICITY":0.0261106,"INCLINATION":82.9344,"RA_OF_ASC_NODE":274.4826,"ARG_OF_PERICENTER":120.1697,"MEAN_ANOMALY":242.5682,"EPHEMERIS_TYPE":0,"CLASSIFICATION_TYPE":"U","NORAD_CAT_ID":12139,"ELEMENT_SET_NO":999,"REV_AT_EPOCH":31721,"BSTAR":0.00053669,"MEAN_MOTION_DOT":0.00021371,"MEAN_MOTION_DDOT":0},{"OBJECT_NAME":"SL-3 R/B","OBJECT_ID":"1981-046B","EPOCH":"2026-03-26T11:01:29.896320","MEAN_MOTION":15.42394627,"ECCENTRICITY":0.0018342,"INCLINATION":81.2288,"RA_OF_ASC_NODE":269.5969,"ARG_OF_PERICENTER":323.0983,"MEAN_ANOMALY":36.8996,"EPHEMERIS_TYPE":0,"CLASSIFICATION_TYPE":"U","NORAD_CAT_ID":12465,"ELEMENT_SET_NO":999,"REV_AT_EPOCH":44101,"BSTAR":0.00025593,"MEAN_MOTION_DOT":0.00011151,"MEAN_MOTION_DDOT":0},{"OBJECT_NAME":"SL-3 R/B","OBJECT_ID":"1981-103B","EPOCH":"2026-03-26T13:01:23.854944","MEAN_MOTION":15.21571372,"ECCENTRICITY":0.0012689,"INCLINATION":81.1604,"RA_OF_ASC_NODE":193.663,"ARG_OF_PERICENTER":226.2615,"MEAN_ANOMALY":133.7566,"EPHEMERIS_TYPE":0,"CLASSIFICATION_TYPE":"U","NORAD_CAT_ID":12904,"ELEMENT_SET_NO":999,"REV_AT_EPOCH":97579,"BSTAR":0.00020617,"MEAN_MOTION_DOT":4.682e-5,"MEAN_MOTION_DDOT":0},{"OBJECT_NAME":"SL-3 R/B","OBJECT_ID":"1982-013B","EPOCH":"2026-03-26T11:28:34.057344","MEAN_MOTION":15.22165662,"ECCENTRICITY":0.0023432,"INCLINATION":81.1743,"RA_OF_ASC_NODE":141.0932,"ARG_OF_PERICENTER":122.2707,"MEAN_ANOMALY":238.08,"EPHEMERIS_TYPE":0,"CLASSIFICATION_TYPE":"U","NORAD_CAT_ID":13068,"ELEMENT_SET_NO":999,"REV_AT_EPOCH":40690,"BSTAR":0.00015269,"MEAN_MOTION_DOT":3.555e-5,"MEAN_MOTION_DDOT":0},{"OBJECT_NAME":"SL-3 R/B","OBJECT_ID":"1982-039B","EPOCH":"2026-03-26T11:40:59.949408","MEAN_MOTION":15.10171878,"ECCENTRICITY":0.0028783,"INCLINATION":81.157,"RA_OF_ASC_NODE":196.5945,"ARG_OF_PERICENTER":269.0264,"MEAN_ANOMALY":90.7664,"EPHEMERIS_TYPE":0,"CLASSIFICATION_TYPE":"U","NORAD_CAT_ID":13154,"ELEMENT_SET_NO":999,"REV_AT_EPOCH":38417,"BSTAR":0.00014843,"MEAN_MOTION_DOT":2.468e-5,"MEAN_MOTION_DDOT":0},{"OBJECT_NAME":"SL-3 R/B","OBJECT_ID":"1982-079B","EPOCH":"2026-03-26T12:44:11.608224","MEAN_MOTION":15.25021798,"ECCENTRICITY":0.0025557,"INCLINATION":81.1481,"RA_OF_ASC_NODE":173.193,"ARG_OF_PERICENTER":109.3361,"MEAN_ANOMALY":251.0639,"EPHEMERIS_TYPE":0,"CLASSIFICATION_TYPE":"U","NORAD_CAT_ID":13403,"ELEMENT_SET_NO":999,"REV_AT_EPOCH":38026,"BSTAR":0.00022315,"MEAN_MOTION_DOT":5.649e-5,"MEAN_MOTION_DDOT":0},{"OBJECT_NAME":"SL-14 R/B","OBJECT_ID":"1982-092B","EPOCH":"2026-03-26T13:20:33.974592","MEAN_MOTION":14.86681056,"ECCENTRICITY":0.0018927,"INCLINATION":82.5662,"RA_OF_ASC_NODE":125.6218,"ARG_OF_PERICENTER":243.186,"MEAN_ANOMALY":277.5297,"EPHEMERIS_TYPE":0,"CLASSIFICATION_TYPE":"U","NORAD_CAT_ID":13553,"ELEMENT_SET_NO":999,"REV_AT_EPOCH":33143,"BSTAR":4.2607e-5,"MEAN_MOTION_DOT":4.04e-6,"MEAN_MOTION_DDOT":0},{"OBJECT_NAME":"SL-3 R/B","OBJECT_ID":"1983-010B","EPOCH":"2026-03-26T10:51:50.749344","MEAN_MOTION":15.46914021,"ECCENTRICITY":0.0016251,"INCLINATION":81.1052,"RA_OF_ASC_NODE":341.6892,"ARG_OF_PERICENTER":354.4772,"MEAN_ANOMALY":5.629,"EPHEMERIS_TYPE":0,"CLASSIFICATION_TYPE":"U","NORAD_CAT_ID":13819,"ELEMENT_SET_NO":999,"REV_AT_EPOCH":36053,"BSTAR":0.00029158,"MEAN_MOTION_DOT":0.00014787,"MEAN_MOTION_DDOT":0},{"OBJECT_NAME":"SL-3 R/B","OBJECT_ID":"1983-075B","EPOCH":"2026-03-26T11:11:29.630688","MEAN_MOTION":15.38802372,"ECCENTRICITY":0.0021983,"INCLINATION":97.6146,"RA_OF_ASC_NODE":90.6841,"ARG_OF_PERICENTER":164.6073,"MEAN_ANOMALY":195.5845,"EPHEMERIS_TYPE":0,"CLASSIFICATION_TYPE":"U","NORAD_CAT_ID":14208,"ELEMENT_SET_NO":999,"REV_AT_EPOCH":33273,"BSTAR":0.00026371,"MEAN_MOTION_DOT":0.00010114,"MEAN_MOTION_DDOT":0},{"OBJECT_NAME":"COSMOS 1536","OBJECT_ID":"1984-013A","EPOCH":"2026-03-26T11:07:38.241120","MEAN_MOTION":15.24044911,"ECCENTRICITY":0.0013103,"INCLINATION":82.542,"RA_OF_ASC_NODE":91.1692,"ARG_OF_PERICENTER":217.1448,"MEAN_ANOMALY":142.8884,"EPHEMERIS_TYPE":0,"CLASSIFICATION_TYPE":"U","NORAD_CAT_ID":14699,"ELEMENT_SET_NO":999,"REV_AT_EPOCH":27517,"BSTAR":0.00024093,"MEAN_MOTION_DOT":5.887e-5,"MEAN_MOTION_DDOT":0},{"OBJECT_NAME":"SL-14 R/B","OBJECT_ID":"1984-027B","EPOCH":"2026-03-26T12:39:27.567360","MEAN_MOTION":14.85993298,"ECCENTRICITY":0.0016485,"INCLINATION":82.5411,"RA_OF_ASC_NODE":229.2189,"ARG_OF_PERICENTER":278.4203,"MEAN_ANOMALY":81.5145,"EPHEMERIS_TYPE":0,"CLASSIFICATION_TYPE":"U","NORAD_CAT_ID":14820,"ELEMENT_SET_NO":999,"REV_AT_EPOCH":25013,"BSTAR":5.6438e-5,"MEAN_MOTION_DOT":5.18e-6,"MEAN_MOTION_DDOT":0},{"OBJECT_NAME":"SL-8 R/B","OBJECT_ID":"1985-006B","EPOCH":"2026-03-26T10:13:21.603936","MEAN_MOTION":14.37795069,"ECCENTRICITY":0.0017778,"INCLINATION":74.0446,"RA_OF_ASC_NODE":230.3495,"ARG_OF_PERICENTER":143.4077,"MEAN_ANOMALY":274.4762,"EPHEMERIS_TYPE":0,"CLASSIFICATION_TYPE":"U","NORAD_CAT_ID":15483,"ELEMENT_SET_NO":999,"REV_AT_EPOCH":15643,"BSTAR":0.00011459,"MEAN_MOTION_DOT":3.2e-6,"MEAN_MOTION_DDOT":0},{"OBJECT_NAME":"SL-12 R/B(2)","OBJECT_ID":"1985-042D","EPOCH":"2026-03-26T09:01:24.387744","MEAN_MOTION":14.2198699,"ECCENTRICITY":0.0032849,"INCLINATION":71.1081,"RA_OF_ASC_NODE":52.4723,"ARG_OF_PERICENTER":100.4881,"MEAN_ANOMALY":11.2275,"EPHEMERIS_TYPE":0,"CLASSIFICATION_TYPE":"U","NORAD_CAT_ID":15772,"ELEMENT_SET_NO":999,"REV_AT_EPOCH":11676,"BSTAR":7.3228e-5,"MEAN_MOTION_DOT":1.15e-6,"MEAN_MOTION_DDOT":0},{"OBJECT_NAME":"SL-14 R/B","OBJECT_ID":"1985-069B","EPOCH":"2026-03-26T12:10:10.314048","MEAN_MOTION":14.86450842,"ECCENTRICITY":0.0019896,"INCLINATION":82.5304,"RA_OF_ASC_NODE":9.1234,"ARG_OF_PERICENTER":133.3114,"MEAN_ANOMALY":226.9766,"EPHEMERIS_TYPE":0,"CLASSIFICATION_TYPE":"U","NORAD_CAT_ID":15945,"ELEMENT_SET_NO":999,"REV_AT_EPOCH":17533,"BSTAR":5.2308e-5,"MEAN_MOTION_DOT":4.88e-6,"MEAN_MOTION_DDOT":0},{"OBJECT_NAME":"SL-16 R/B","OBJECT_ID":"1985-097B","EPOCH":"2026-03-26T10:44:11.690592","MEAN_MOTION":14.16603392,"ECCENTRICITY":0.0009504,"INCLINATION":71.0009,"RA_OF_ASC_NODE":105.2731,"ARG_OF_PERICENTER":240.1328,"MEAN_ANOMALY":221.7684,"EPHEMERIS_TYPE":0,"CLASSIFICATION_TYPE":"U","NORAD_CAT_ID":16182,"ELEMENT_SET_NO":999,"REV_AT_EPOCH":8960,"BSTAR":4.6811e-5,"MEAN_MOTION_DOT":4.6e-7,"MEAN_MOTION_DDOT":0}]
